{
"type": "FeatureCollection",
"features": [
{"type":"Feature","properties":{"osm_id":"7803515478","name":"Department of Fisheries"},"geometry":{"type":"Point","coordinates":[76.0269542,11.5398737]}},
{"type":"Feature","properties":{"osm_id":"7998651921","name":"Dr Sithara Dileep, BHMS"},"geometry":{"type":"Point","coordinates":[76.1093966,11.5754096]}},
{"type":"Feature","properties":{"osm_id":"8010607807","name":"Cno.04 Nallannoor Anganwadi. Muppinad"},"geometry":{"type":"Point","coordinates":[76.1720224,11.5550103]}},
{"type":"Feature","properties":{"osm_id":"8010613426","name":"chennalode 2"},"geometry":{"type":"Point","coordinates":[75.9939676,11.650111]}},
{"type":"Feature","properties":{"osm_id":"8013223750","name":"Church"},"geometry":{"type":"Point","coordinates":[76.2118451,11.551255]}},
{"type":"Feature","properties":{"osm_id":"8398815624","name":"Parakunnu Anganvadi"},"geometry":{"type":"Point","coordinates":[76.0128141,11.5882674]}},
{"type":"Feature","properties":{"osm_id":"8398937102","name":"Parnirappkunnu Anganvadi"},"geometry":{"type":"Point","coordinates":[76.0303199,11.6156969]}},
{"type":"Feature","properties":{"osm_id":"8399137242","name":null},"geometry":{"type":"Point","coordinates":[76.0068318,11.6073016]}},
{"type":"Feature","properties":{"osm_id":"8399167241","name":"EMS COLONY  Ward 1"},"geometry":{"type":"Point","coordinates":[76.0064632,11.61693]}},
{"type":"Feature","properties":{"osm_id":"8664402895","name":"Edathil Tribal Colony, Vazhavatta"},"geometry":{"type":"Point","coordinates":[76.1531611,11.6234209]}},
{"type":"Feature","properties":{"osm_id":"8664426541","name":"Edathil Tribal Colony, Vazhavatta"},"geometry":{"type":"Point","coordinates":[76.1542877,11.6227454]}},
{"type":"Feature","properties":{"osm_id":"8667688917","name":"Dr A P J Abdul Kalam Community Hall Meppadi"},"geometry":{"type":"Point","coordinates":[76.131318,11.559379]}},
{"type":"Feature","properties":{"osm_id":"8667836317","name":"E M S Memorial Town Hall Meppadi"},"geometry":{"type":"Point","coordinates":[76.1349809,11.5532576]}},
{"type":"Feature","properties":{"osm_id":"8670893617","name":"50 Acer Estate"},"geometry":{"type":"Point","coordinates":[76.1454789,11.5377802]}},
{"type":"Feature","properties":{"osm_id":"8678880118","name":"Family Wealth Care Thrikaipetta"},"geometry":{"type":"Point","coordinates":[76.1386163,11.5927193]}},
{"type":"Feature","properties":{"osm_id":"8849863751","name":"Esaf bank"},"geometry":{"type":"Point","coordinates":[76.03922,11.5558281]}},
{"type":"Feature","properties":{"osm_id":"8874523317","name":"Chundale estate"},"geometry":{"type":"Point","coordinates":[76.0460553,11.5806189]}},
{"type":"Feature","properties":{"osm_id":"8886719649","name":"Chundale Anganavady, Chundale"},"geometry":{"type":"Point","coordinates":[76.056966,11.5745304]}},
{"type":"Feature","properties":{"osm_id":"8892516420","name":"District Tourism Promotion Council Public Toilet, Pookode"},"geometry":{"type":"Point","coordinates":[76.0279024,11.536199]}},
{"type":"Feature","properties":{"osm_id":"8892543677","name":"Coffe Board, Chundale"},"geometry":{"type":"Point","coordinates":[76.0568886,11.5732197]}},
{"type":"Feature","properties":{"osm_id":"8892587415","name":"Chundale Post Office, Chundale"},"geometry":{"type":"Point","coordinates":[76.0569485,11.5732999]}},
{"type":"Feature","properties":{"osm_id":"8998387389","name":"Family Health Centre Vazhavatta"},"geometry":{"type":"Point","coordinates":[76.143777,11.6004629]}},
{"type":"Feature","properties":{"osm_id":"9224856363","name":"4 cent Colony, Karingannikunn"},"geometry":{"type":"Point","coordinates":[76.1367771,11.6285536]}},
{"type":"Feature","properties":{"osm_id":"9224921608","name":"Pannikuzhi Kuruma Colony"},"geometry":{"type":"Point","coordinates":[76.1330644,11.6286446]}},
{"type":"Feature","properties":{"osm_id":"9389672959","name":"Colony"},"geometry":{"type":"Point","coordinates":[76.1564596,11.5752869]}},
{"type":"Feature","properties":{"osm_id":"9852371644","name":"Erumad"},"geometry":{"type":"Point","coordinates":[76.2588715,11.568791]}},
{"type":"Feature","properties":{"osm_id":"10110858709","name":"Diary Office"},"geometry":{"type":"Point","coordinates":[76.0846419,11.6127697]}},
{"type":"Feature","properties":{"osm_id":"10111080509","name":"Circle Inspector of Excise Office Kalpetta"},"geometry":{"type":"Point","coordinates":[76.0737443,11.6144288]}},
{"type":"Feature","properties":{"osm_id":"12343545546","name":"Diary Men's hostel"},"geometry":{"type":"Point","coordinates":[76.0204239,11.5408998]}},
{"type":"Feature","properties":{"osm_id":"12347965266","name":"Enna Ooru Tickets"},"geometry":{"type":"Point","coordinates":[76.0250455,11.5327527]}},
{"type":"Feature","properties":{"osm_id":"12350613073","name":"Elly Handcraft Shop"},"geometry":{"type":"Point","coordinates":[76.0153341,11.529641]}},
{"type":"Feature","properties":{"osm_id":"12357514946","name":"Enn Ooru Open Air Theatre"},"geometry":{"type":"Point","coordinates":[76.0155389,11.528533]}},
{"type":"Feature","properties":{"osm_id":"12465434001","name":"1st Mile"},"geometry":{"type":"Point","coordinates":[76.1387841,11.542858]}},
{"type":"Feature","properties":{"osm_id":"12498279179","name":"Fatima Mata"},"geometry":{"type":"Point","coordinates":[76.0788156,11.6138069]}},
{"type":"Feature","properties":{"osm_id":"12518715587","name":"Chundale"},"geometry":{"type":"Point","coordinates":[76.0588268,11.5744315]}},
{"type":"Feature","properties":{"osm_id":"12518715588","name":"Chundale"},"geometry":{"type":"Point","coordinates":[76.0588366,11.5744133]}},
{"type":"Feature","properties":{"osm_id":"12518715589","name":"Chundale"},"geometry":{"type":"Point","coordinates":[76.0583105,11.5741024]}},
{"type":"Feature","properties":{"osm_id":"12518718496","name":"6th Mile"},"geometry":{"type":"Point","coordinates":[76.0082456,11.6074765]}},
{"type":"Feature","properties":{"osm_id":"12518718497","name":null},"geometry":{"type":"Point","coordinates":[76.0082291,11.6074519]}},
{"type":"Feature","properties":{"osm_id":"12518718498","name":null},"geometry":{"type":"Point","coordinates":[76.0082116,11.6074098]}},
{"type":"Feature","properties":{"osm_id":"12518718539","name":"8th Mile"},"geometry":{"type":"Point","coordinates":[75.9904895,11.628382]}},
{"type":"Feature","properties":{"osm_id":"12518718546","name":"10th Mile"},"geometry":{"type":"Point","coordinates":[75.9815759,11.6366053]}},
{"type":"Feature","properties":{"osm_id":"12518878362","name":"Chundale"},"geometry":{"type":"Point","coordinates":[76.0581919,11.574148]}}
]
}
